COMMENT,ORIGINATOR,NORAD_CAT_ID,OBJECT_NAME,OBJECT_TYPE,CLASSIFICATION_TYPE,INTLDES,EPOCH,EPOCH_MICROSECONDS,MEAN_MOTION,ECCENTRICITY,INCLINATION,RA_OF_ASC_NODE,ARG_OF_PERICENTER,MEAN_ANOMALY,EPHEMERIS_TYPE,ELEMENT_SET_NO,REV_AT_EPOCH,BSTAR,MEAN_MOTION_DOT,MEAN_MOTION_DDOT,FILE,TLE_LINE0,TLE_LINE1,TLE_LINE2,OBJECT_ID,OBJECT_NUMBER,SEMIMAJOR_AXIS,PERIOD,APOGEE,PERIGEE,DECAYED
"GENERATED VIA SPACETRACK.ORG API","18 SPCS","55102","SPACEBEE-157","PAYLOAD","U","23001CX","2024-01-08 14:58:41","649888","15.3223794","0.0011667","97.4473","73.3666","6.9055","353.2345","0","999","5643","0.00099263","0.00030971","0","4156930","0 SPACEBEE-157","1 55102U 23001CX  24008.62409317  .00030971  00000-0  99263-3 0  9997","2 55102  97.4473  73.3666 0011667   6.9055 353.2345 15.32237940 56435","2023-001CX","55102","6847.274","93.980","477.128","461.150","0"
"GENERATED VIA SPACETRACK.ORG API","18 SPCS","55102","SPACEBEE-157","PAYLOAD","U","23001CX","2024-01-09 09:47:10","36320","15.32286754","0.0011479","97.4472","74.154","4.1372","355.9962","0","999","5655","0.0010881","0.00034021","0","4157460","0 SPACEBEE-157","1 55102U 23001CX  24009.40775505  .00034021  00000-0  10881-2 0  9997","2 55102  97.4472  74.1540 0011479   4.1372 355.9962 15.32286754 56551","2023-001CX","55102","6847.128","93.977","476.853","461.134","0"
"GENERATED VIA SPACETRACK.ORG API","18 SPCS","55102","SPACEBEE-157","PAYLOAD","U","23001CX","2024-01-09 14:29:16","733760","15.32302457","0.0011424","97.4472","74.3509","3.4039","356.7278","0","999","5658","0.0011356","0.00035533","0","4157515","0 SPACEBEE-157","1 55102U 23001CX  24009.60366590  .00035533  00000-0  11356-2 0  9996","2 55102  97.4472  74.3509 0011424   3.4039 356.7278 15.32302457 56581","2023-001CX","55102","6847.082","93.976","476.769","461.125","0"
"GENERATED VIA SPACETRACK.ORG API","18 SPCS","55102","SPACEBEE-157","PAYLOAD","U","23001CX","2024-01-09 17:37:21","116352","15.32311239","0.0011478","97.4471","74.4825","2.8688","357.2618","0","999","5660","0.0011213","0.00035093","0","4157773","0 SPACEBEE-157","1 55102U 23001CX  24009.73427218  .00035093  00000-0  11213-2 0  9998","2 55102  97.4471  74.4825 0011478   2.8688 357.2618 15.32311239 56609","2023-001CX","55102","6847.056","93.976","476.780","461.061","0"
"GENERATED VIA SPACETRACK.ORG API","18 SPCS","55102","SPACEBEE-157","PAYLOAD","U","23001CX","2024-01-10 03:01:33","858048","15.3233855","0.0011514","97.447","74.8765","1.4485","358.6788","0","999","5666","0.0011061","0.00034644","0","4158336","0 SPACEBEE-157","1 55102U 23001CX  24010.12608632  .00034644  00000-0  11061-2 0  9996","2 55102  97.4470  74.8765 0011514   1.4485 358.6788 15.32338550 56660","2023-001CX","55102","6846.974","93.974","476.723","460.956","0"
"GENERATED VIA SPACETRACK.ORG API","18 SPCS","55102","SPACEBEE-157","PAYLOAD","U","23001CX","2024-01-10 15:33:49","823712","15.32379203","0.001139","97.4469","75.4018","359.7966","0.3269","0","999","5674","0.0011812","0.00037059","0","4158513","0 SPACEBEE-157","1 55102U 23001CX  24010.64849333  .00037059  00000-0  11812-2 0  9995","2 55102  97.4469  75.4018 0011390 359.7966   0.3269 15.32379203 56745","2023-001CX","55102","6846.853","93.972","476.517","460.920","0"
"GENERATED VIA SPACETRACK.ORG API","18 SPCS","55102","SPACEBEE-157","PAYLOAD","U","23001CX","2024-01-11 04:06:04","483008","15.32425977","0.0011399","97.4469","75.9273","358.0829","2.0367","0","999","5682","0.0013418","0.00042198","0","4159117","0 SPACEBEE-157","1 55102U 23001CX  24011.17088522  .00042198  00000-0  13418-2 0  9993","2 55102  97.4469  75.9273 0011399 358.0829   2.0367 15.32425977 56829","2023-001CX","55102","6846.714","93.969","476.383","460.774","0"
"GENERATED VIA SPACETRACK.ORG API","18 SPCS","55102","SPACEBEE-157","PAYLOAD","U","23001CX","2024-01-11 04:06:04","483008","15.32425977","0.0011399","97.4469","75.9273","358.0829","2.0367","0","999","5682","0.0013418","0.00042198","0","4159265","0 SPACEBEE-157","1 55102U 23001CX  24011.17088522  .00042198  00000-0  13418-2 0  9993","2 55102  97.4469  75.9273 0011399 358.0829   2.0367 15.32425977 56829","2023-001CX","55102","6846.714","93.969","476.383","460.774","0"
"GENERATED VIA SPACETRACK.ORG API","18 SPCS","55102","SPACEBEE-157","PAYLOAD","U","23001CX","2024-01-11 16:38:17","743488","15.32473833","0.0011376","97.4468","76.4528","356.1808","3.9345","0","999","5690","0.0013633","0.00042943","0","4159545","0 SPACEBEE-157","1 55102U 23001CX  24011.69326092  .00042943  00000-0  13633-2 0  9994","2 55102  97.4468  76.4528 0011376 356.1808   3.9345 15.32473833 56907","2023-001CX","55102","6846.571","93.966","476.225","460.648","0"
"GENERATED VIA SPACETRACK.ORG API","18 SPCS","55102","SPACEBEE-157","PAYLOAD","U","23001CX","2024-01-12 09:52:33","823776","15.32535247","0.0011357","97.4455","77.1751","353.7613","6.3486","0","999","5701","0.0013494","0.00042584","0","4160109","0 SPACEBEE-157","1 55102U 23001CX  24012.41150259  .00042584  00000-0  13494-2 0  9991","2 55102  97.4455  77.1751 0011357 353.7613   6.3486 15.32535247 57019","2023-001CX","55102","6846.388","93.962","476.029","460.478","0"
"GENERATED VIA SPACETRACK.ORG API","18 SPCS","55102","SPACEBEE-157","PAYLOAD","U","23001CX","2024-01-12 16:08:39","45696","15.32557271","0.0011364","97.4455","77.4378","352.7501","7.3575","0","999","5705","0.0012856","0.00040585","0","4160260","0 SPACEBEE-157","1 55102U 23001CX  24012.67267414  .00040585  00000-0  12856-2 0  9991","2 55102  97.4455  77.4378 0011364 352.7501   7.3575 15.32557271 57055","2023-001CX","55102","6846.323","93.961","475.968","460.408","0"
"GENERATED VIA SPACETRACK.ORG API","18 SPCS","55102","SPACEBEE-157","PAYLOAD","U","23001CX","2024-01-12 16:08:39","45696","15.32557271","0.0011364","97.4455","77.4378","352.7501","7.3575","0","999","5705","0.0012856","0.00040585","0","4160399","0 SPACEBEE-157","1 55102U 23001CX  24012.67267414  .00040585  00000-0  12856-2 0  9991","2 55102  97.4455  77.4378 0011364 352.7501   7.3575 15.32557271 57055","2023-001CX","55102","6846.323","93.961","475.968","460.408","0"
"GENERATED VIA SPACETRACK.ORG API","18 SPCS","55102","SPACEBEE-157","PAYLOAD","U","23001CX","2024-01-13 03:06:47","378592","15.32598472","0.001136","97.4452","77.8974","351.0349","9.0688","0","999","5712","0.0013814","0.00043689","0","4160970","0 SPACEBEE-157","1 55102U 23001CX  24013.12971503  .00043689  00000-0  13814-2 0  9996","2 55102  97.4452  77.8974 0011360 351.0349   9.0688 15.32598472 57126","2023-001CX","55102","6846.200","93.958","475.842","460.288","0"
"GENERATED VIA SPACETRACK.ORG API","18 SPCS","55102","SPACEBEE-157","PAYLOAD","U","23001CX","2024-01-13 17:12:56","605248","15.32648031","0.0011241","97.4454","78.489","349.2699","10.8301","0","999","5721","0.0013163","0.00041678","0","4161183","0 SPACEBEE-157","1 55102U 23001CX  24013.71732182  .00041678  00000-0  13163-2 0  9992","2 55102  97.4454  78.4890 0011241 349.2699  10.8301 15.32648031 57216","2023-001CX","55102","6846.052","93.955","475.613","460.222","0"
"GENERATED VIA SPACETRACK.ORG API","18 SPCS","55102","SPACEBEE-157","PAYLOAD","U","23001CX","2024-01-14 02:37:01","753248","15.32686673","0.0011172","97.4451","78.8829","347.9249","12.1724","0","999","5727","0.0014616","0.00046371","0","4161833","0 SPACEBEE-157","1 55102U 23001CX  24014.10904807  .00046371  00000-0  14616-2 0  9990","2 55102  97.4451  78.8829 0011172 347.9249  12.1724 15.32686673 57272","2023-001CX","55102","6845.937","93.953","475.451","460.154","0"
"GENERATED VIA SPACETRACK.ORG API","18 SPCS","55102","SPACEBEE-157","PAYLOAD","U","23001CX","2024-01-14 02:37:01","753248","15.32686673","0.0011172","97.4451","78.8829","347.9249","12.1724","0","999","5727","0.0014616","0.00046371","0","4162008","0 SPACEBEE-157","1 55102U 23001CX  24014.10904807  .00046371  00000-0  14616-2 0  9990","2 55102  97.4451  78.8829 0011172 347.9249  12.1724 15.32686673 57272","2023-001CX","55102","6845.937","93.953","475.451","460.154","0"
"GENERATED VIA SPACETRACK.ORG API","18 SPCS","55102","SPACEBEE-157","PAYLOAD","U","23001CX","2024-01-15 03:41:11","459904","15.32789865","0.0011024","97.4447","79.9335","344.155","15.9345","0","999","5743","0.0016054","0.00051135","0","4162264","0 SPACEBEE-157","1 55102U 23001CX  24015.15360486  .00051135  00000-0  16054-2 0  9997","2 55102  97.4447  79.9335 0011024 344.1550  15.9345 15.32789865 57436","2023-001CX","55102","6845.630","93.946","475.042","459.948","0"
"GENERATED VIA SPACETRACK.ORG API","18 SPCS","55102","SPACEBEE-157","PAYLOAD","U","23001CX","2024-01-15 03:41:11","459904","15.32789865","0.0011024","97.4447","79.9335","344.155","15.9345","0","999","5743","0.0016054","0.00051135","0","4162722","0 SPACEBEE-157","1 55102U 23001CX  24015.15360486  .00051135  00000-0  16054-2 0  9997","2 55102  97.4447  79.9335 0011024 344.1550  15.9345 15.32789865 57436","2023-001CX","55102","6845.630","93.946","475.042","459.948","0"
"GENERATED VIA SPACETRACK.ORG API","18 SPCS","55102","SPACEBEE-157","PAYLOAD","U","23001CX","2024-01-16 03:11:14","902368","15.32885714","0.0010961","97.4445","80.9186","340.4749","19.6072","0","999","5758","0.0014654","0.00046782","0","4163580","0 SPACEBEE-157","1 55102U 23001CX  24016.13281137  .00046782  00000-0  14654-2 0  9997","2 55102  97.4445  80.9186 0010961 340.4749  19.6072 15.32885714 57582","2023-001CX","55102","6845.345","93.940","474.713","459.707","0"
"GENERATED VIA SPACETRACK.ORG API","18 SPCS","55102","SPACEBEE-157","PAYLOAD","U","23001CX","2024-01-16 17:17:14","470368","15.32942282","0.00109","97.4445","81.5097","338.5854","21.4931","0","999","5767","0.0014326","0.00045807","0","4163771","0 SPACEBEE-157","1 55102U 23001CX  24016.72030637  .00045807  00000-0  14326-2 0  9992","2 55102  97.4445  81.5097 0010900 338.5854  21.4931 15.32942282 57677","2023-001CX","55102","6845.176","93.937","474.503","459.580","0"
